YAOGAN-36 04C           
1 54750U 22171E   26068.78871400  .00016196  00000+0  54592-3 0  9991
2 54750  34.9797  96.6578 0006685 275.3761  84.6192 15.29852307180246
STARLINK-34790          
1 65690U 25212Q   26068.18219064  .00050021  00000+0  16902-2 0  9998
2 65690  53.1613 348.1884 0001146  54.1071 306.0036 15.30190120 27114
